STARLINK-37149          
1 68309U 26057R   26152.86692450  .00275024  00000+0  17745-2 0  9997
2 68309  97.2852 279.4500 0001426  39.7143 320.4227 15.75338844 11536
STARLINK-37148          
1 68310U 26057S   26153.30243956  .00232370  00000+0  15117-2 0  9990
2 68310  97.2858 279.9307 0000489  71.8682 288.2636 15.75266770 11608
STARLINK-37140          
1 68311U 26057T   26153.25003472 -.02414892  00000+0 -24098-1 0  9994
2 68311  97.2857 279.9275 0002033  67.6541 118.6553 15.68785753  5893
STARLINK-36854          
1 68312U 26057U   26153.25003472 -.02321708  00000+0 -26291-1 0  9995
2 68312  97.2851 279.9686 0001753  78.2038 201.3345 15.65553369  5848
STARLINK-36815          
1 68313U 26057V   26153.25003472 -.02284087  00000+0 -39517-1 0  9999
2 68313  97.2861 279.9190 0002020  59.1096  85.7343 15.54457302  5941
STARLINK-37155          
1 68314U 26057W   26153.25003472 -.02437442  00000+0 -26689-1 0  9991
2 68314  97.2855 279.9641 0001563  69.6849 201.9038 15.66554965  5993
STARLINK-37150          
1 68315U 26057X   26153.25003472 -.02342639  00000+0 -31501-1 0  9994
2 68315  97.2849 279.8398 0001458  57.5472 282.1469 15.61233156  6009
STARLINK-37154          
1 68316U 26057Y   26153.25003472 -.02330317  00000+0 -41380-1 0  9991
2 68316  97.2859 279.8062 0001998  82.5594 176.9285 15.53823561  6003
STARLINK-37139          
1 68317U 26057Z   26153.25003472 -.02387172  00000+0 -28360-1 0  9996
2 68317  97.2857 279.9191 0001815  67.1373 101.6073 15.64448457  6007
STARLINK-37113          
1 68318U 26057AA  26153.25003472 -.02351362  00000+0 -36351-1 0  9998
2 68318  97.2849 279.8405 0001313  66.9668 267.8403 15.57598264  6009
PROGRESS-MS 33          
1 68319U 26058A   26153.09720835  .00009906  00000+0  18407-3 0  9995
2 68319  51.6331  14.8020 0007169 124.3735 235.7933 15.49554083569221
STARLINK-36987          
1 68321U 26059A   26152.77588896  .00023809  00000+0  81318-3 0  9991
2 68321  53.1616 317.4049 0001014  71.3644 288.7467 15.30210071 11052
STARLINK-37088          
1 68322U 26059B   26152.73298524  .00027974  00000+0  83578-3 0  9991
2 68322  53.1598 313.5739 0000975  64.3322 295.7781 15.34406972 11109
STARLINK-36983          
1 68323U 26059C   26152.65769075  .00030094  00000+0  87051-3 0  9994
2 68323  53.1598 313.8166 0000965  94.0935 266.0178 15.35387628 11081
STARLINK-37164          
1 68324U 26059D   26152.73379605  .00030501  00000+0  10372-2 0  9994
2 68324  53.1593 317.8583 0001140  76.0248 284.0879 15.30215748 12174
STARLINK-36309          
1 68325U 26059E   26152.76219274  .00028957  00000+0  83720-3 0  9993
2 68325  53.1610 313.7528 0000892 138.6869 221.4202 15.35424066 11103
STARLINK-37206          
1 68326U 26059F   26152.77905826  .00022611  00000+0  77319-3 0  9998
2 68326  53.1603 317.4233 0000881 105.9734 254.1364 15.30201641 11059
STARLINK-37199          
1 68327U 26059G   26152.82537904  .00031384  00000+0  10668-2 0  9993
2 68327  53.1586 317.0215 0001067 120.4031 239.7075 15.30215528 11063
STARLINK-36245          
1 68328U 26059H   26152.73063074  .00039523  00000+0  13391-2 0  9995
2 68328  53.1597 317.8369 0001119  63.6226 296.4890 15.30207910 11045
STARLINK-37204          
1 68329U 26059J   26152.64470864  .00021873  00000+0  65671-3 0  9993
2 68329  53.1600 313.7333 0001243 123.4587 236.6535 15.34395346 11092
STARLINK-37001          
1 68330U 26059K   26152.79225409  .00029445  00000+0  97649-3 0  9997
2 68330  53.1593 317.5320 0001030  69.7626 290.3486 15.31046315 11057
STARLINK-36932          
1 68331U 26059L   26153.00395179  .00029831  00000+0  86221-3 0  9998
2 68331  53.1606 312.4190 0001098  80.8953 279.2175 15.35417649 11140
STARLINK-37205          
1 68332U 26059M   26152.68850440  .00065102  00000+0  21868-2 0  9995
2 68332  53.1594 318.2922 0001142  50.7620 309.3482 15.30261655 11034
STARLINK-37180          
1 68333U 26059N   26153.25003472  .00061654  00000+0  17637-2 0  9992
2 68333  53.1588 311.2779 0000508  40.6347 246.3535 15.35405014  5935
STARLINK-37191          
1 68334U 26059P   26152.68114089  .00023121  00000+0  79015-3 0  9992
2 68334  53.1576 318.2429 0000940  98.5601 261.5506 15.30206813 11033
STARLINK-37217          
1 68335U 26059Q   26152.77417247  .00096713  00000+0  17235-2 0  9997
2 68335  53.1587 312.4112 0001492  31.8363 328.2736 15.49342707 11128
STARLINK-37143          
1 68336U 26059R   26152.67481540  .00026654  00000+0  90882-3 0  9991
2 68336  53.1579 318.1984 0001044  52.4690 307.6405 15.30200354 11030
STARLINK-36237          
1 68337U 26059S   26152.71622220  .00047589  00000+0  13658-2 0  9994
2 68337  53.1599 313.4617 0000869  74.8609 285.2490 15.35416858 11102
STARLINK-36254          
1 68338U 26059T   26153.28554057  .00040465  00000+0  12021-2 0  9999
2 68338  53.1601 310.6150 0000978  36.3600 323.7469 15.34405200 11194
STARLINK-37200          
1 68339U 26059U   26152.70108118  .00026916  00000+0  91738-3 0  9997
2 68339  53.1608 317.6412 0001015 126.8643 233.2451 15.30207387 11047
