OBJECT_NAME,OBJECT_ID,EPOCH,MEAN_MOTION,ECCENTRICITY,INCLINATION,RA_OF_ASC_NODE,ARG_OF_PERICENTER,MEAN_ANOMALY,EPHEMERIS_TYPE,CLASSIFICATION_TYPE,NORAD_CAT_ID,ELEMENT_SET_NO,REV_AT_EPOCH,BSTAR,MEAN_MOTION_DOT,MEAN_MOTION_DDOT
STARLINK-37149,2026-057R,2026-06-01T20:48:22.276800,15.75338844,.0001426,97.2852,279.4500,39.7143,320.4227,0,U,68309,999,1153,.17745497E-2,.275024E-2,0
STARLINK-37148,2026-057S,2026-06-02T07:15:30.777984,15.75266770,.00004898,97.2858,279.9307,71.8682,288.2636,0,U,68310,999,1160,.15117088E-2,.23237E-2,0
STARLINK-37140,2026-057T,2026-06-02T06:00:02.999808,15.68785753,.00020334,97.2857,279.9275,67.6541,118.6553,0,U,68311,999,589,-.24097548E-1,-.2414892E-1,0
STARLINK-36854,2026-057U,2026-06-02T06:00:02.999808,15.65553369,.00017538,97.2851,279.9686,78.2038,201.3345,0,U,68312,999,584,-.26291037E-1,-.2321708E-1,0
STARLINK-36815,2026-057V,2026-06-02T06:00:02.999808,15.54457302,.00020201,97.2861,279.9190,59.1096,85.7343,0,U,68313,999,594,-.39516884E-1,-.2284087E-1,0
STARLINK-37155,2026-057W,2026-06-02T06:00:02.999808,15.66554965,.00015633,97.2855,279.9641,69.6849,201.9038,0,U,68314,999,599,-.26688991E-1,-.2437442E-1,0
STARLINK-37150,2026-057X,2026-06-02T06:00:02.999808,15.61233156,.0001458,97.2849,279.8398,57.5472,282.1469,0,U,68315,999,600,-.31501196E-1,-.2342639E-1,0
STARLINK-37154,2026-057Y,2026-06-02T06:00:02.999808,15.53823561,.00019981,97.2859,279.8062,82.5594,176.9285,0,U,68316,999,600,-.41379962E-1,-.2330317E-1,0
STARLINK-37139,2026-057Z,2026-06-02T06:00:02.999808,15.64448457,.00018156,97.2857,279.9191,67.1373,101.6073,0,U,68317,999,600,-.28360301E-1,-.2387172E-1,0
STARLINK-37113,2026-057AA,2026-06-02T06:00:02.999808,15.57598264,.00013136,97.2849,279.8405,66.9668,267.8403,0,U,68318,999,600,-.36350683E-1,-.2351362E-1,0
PROGRESS-MS 33,2026-058A,2026-06-02T02:19:58.801440,15.49554083,.00071692,51.6331,14.8020,124.3735,235.7933,0,U,68319,999,56922,.18406773E-3,.9906E-4,0
STARLINK-36987,2026-059A,2026-06-01T18:37:16.806144,15.30210071,.0001014,53.1616,317.4049,71.3644,288.7467,0,U,68321,999,1105,.81317697E-3,.23809E-3,0
STARLINK-37088,2026-059B,2026-06-01T17:35:29.924736,15.34406972,.00009753,53.1598,313.5739,64.3322,295.7781,0,U,68322,999,1110,.8357843E-3,.27974E-3,0
STARLINK-36983,2026-059C,2026-06-01T15:47:04.480800,15.35387628,.00009653,53.1598,313.8166,94.0935,266.0178,0,U,68323,999,1108,.87051048E-3,.30094E-3,0
STARLINK-37164,2026-059D,2026-06-01T17:36:39.978720,15.30215748,.00011408,53.1593,317.8583,76.0248,284.0879,0,U,68324,999,1217,.10372148E-2,.30501E-3,0
STARLINK-36309,2026-059E,2026-06-01T18:17:33.452736,15.35424066,.00008923,53.1610,313.7528,138.6869,221.4202,0,U,68325,999,1110,.83719968E-3,.28957E-3,0
STARLINK-37206,2026-059F,2026-06-01T18:41:50.633664,15.30201641,.00008811,53.1603,317.4233,105.9734,254.1364,0,U,68326,999,1105,.77319319E-3,.22611E-3,0
STARLINK-37199,2026-059G,2026-06-01T19:48:32.749056,15.30215528,.00010674,53.1586,317.0215,120.4031,239.7075,0,U,68327,999,1106,.10667561E-2,.31384E-3,0
STARLINK-36245,2026-059H,2026-06-01T17:32:06.495936,15.30207910,.00011198,53.1597,317.8369,63.6226,296.4890,0,U,68328,999,1104,.13391373E-2,.39523E-3,0
STARLINK-37204,2026-059J,2026-06-01T15:28:22.826496,15.34395346,.00012436,53.1600,313.7333,123.4587,236.6535,0,U,68329,999,1109,.65671241E-3,.21873E-3,0
STARLINK-37001,2026-059K,2026-06-01T19:00:50.753376,15.31046315,.000103,53.1593,317.5320,69.7626,290.3486,0,U,68330,999,1105,.97649318E-3,.29445E-3,0
STARLINK-36932,2026-059L,2026-06-02T00:05:41.434656,15.35417649,.00010981,53.1606,312.4190,80.8953,279.2175,0,U,68331,999,1114,.86220951E-3,.29831E-3,0
STARLINK-37205,2026-059M,2026-06-01T16:31:26.780160,15.30261655,.00011429,53.1594,318.2922,50.7620,309.3482,0,U,68332,999,1103,.21868493E-2,.65102E-3,0
STARLINK-37180,2026-059N,2026-06-02T06:00:02.999808,15.35405014,.00005085,53.1588,311.2779,40.6347,246.3535,0,U,68333,999,593,.17636788E-2,.61654E-3,0
STARLINK-37191,2026-059P,2026-06-01T16:20:50.572896,15.30206813,.00009401,53.1576,318.2429,98.5601,261.5506,0,U,68334,999,1103,.79015364E-3,.23121E-3,0
STARLINK-37217,2026-059Q,2026-06-01T18:34:48.501408,15.49342707,.00014923,53.1587,312.4112,31.8363,328.2736,0,U,68335,999,1112,.17234505E-2,.96713E-3,0
STARLINK-37143,2026-059R,2026-06-01T16:11:44.050560,15.30200354,.00010442,53.1579,318.1984,52.4690,307.6405,0,U,68336,999,1103,.90881626E-3,.26654E-3,0
STARLINK-36237,2026-059S,2026-06-01T17:11:21.598080,15.35416858,.00008691,53.1599,313.4617,74.8609,285.2490,0,U,68337,999,1110,.13658219E-2,.47589E-3,0
STARLINK-36254,2026-059T,2026-06-02T06:51:10.705248,15.34405200,.00009789,53.1601,310.6150,36.3600,323.7469,0,U,68338,999,1119,.12021127E-2,.40465E-3,0
STARLINK-37200,2026-059U,2026-06-01T16:49:33.413952,15.30207387,.00010158,53.1608,317.6412,126.8643,233.2451,0,U,68339,999,1104,.91737996E-3,.26916E-3,0
